[{"OBJECT_NAME":"STARLINK-32813","OBJECT_ID":"2025-022R","EPOCH":"2026-03-09T11:17:10.746528","MEAN_MOTION":15.30188357,"ECCENTRICITY":0.00013901,"INCLINATION":53.158,"RA_OF_ASC_NODE":130.8391,"ARG_OF_PERICENTER":88.053,"MEAN_ANOMALY":272.063,"EPHEMERIS_TYPE":0,"CLASSIFICATION_TYPE":"U","NORAD_CAT_ID":62869,"ELEMENT_SET_NO":999,"REV_AT_EPOCH":6186,"BSTAR":0.0010629446,"MEAN_MOTION_DOT":0.00031243,"MEAN_MOTION_DDOT":0},{"OBJECT_NAME":"TEVEL2-1","OBJECT_ID":"2025-052H","EPOCH":"2026-03-09T15:32:51.927072","MEAN_MOTION":15.30341923,"ECCENTRICITY":0.0004767,"INCLINATION":97.3991,"RA_OF_ASC_NODE":324.7682,"ARG_OF_PERICENTER":104.8919,"MEAN_ANOMALY":255.2849,"EPHEMERIS_TYPE":0,"CLASSIFICATION_TYPE":"U","NORAD_CAT_ID":63217,"ELEMENT_SET_NO":999,"REV_AT_EPOCH":5485,"BSTAR":0.000706,"MEAN_MOTION_DOT":0.00020683,"MEAN_MOTION_DDOT":0}]
